STARLINK-6257           
1 57088C 23088AS  26124.39979167 -.00001368  00000+0 -49584-4 0  1248
2 57088  43.0006 141.4565 0001283 275.6177 349.1907 15.27566279    12
STARLINK-6259           
1 57089C 23088AT  26124.39701389  .00021668  00000+0  80532-3 0  1248
2 57089  43.0018 141.3262 0001328 270.9218  37.5996 15.26720533    13
STARLINK-6254           
1 57090C 23088AU  26124.36784722  .00011504  00000+0  41690-3 0  1249
2 57090  43.0011 141.3791 0001319 266.5590 288.4733 15.27554180    19
STARLINK-6262           
1 57091C 23088AV  26124.39215278 -.00019550  00000+0 -70842-3 0  1240
2 57091  43.0014 141.3276 0001379 274.0457  19.4595 15.27573288    11
STARLINK-6225           
1 57092C 23088AW  26124.39701389  .00008315  00000+0  30900-3 0  1240
2 57092  43.0013 141.2367 0001266 275.3223  72.2381 15.26729336    17
STARLINK-6229           
1 57093C 23088AX  26124.38173611 -.00021766  00000+0 -80903-3 0  1246
2 57093  43.0020 141.4235 0001345 272.4943 307.4253 15.26739677    17
STARLINK-6235           
1 57094C 23088AY  26124.42479167 -.00013376  00000+0 -48484-3 0  1243
2 57094  43.0001 141.3441 0001285 274.4535 113.8546 15.27559483    17
STARLINK-6132           
1 57101C 23090A   26124.42548611  .00022206  00000+0  80458-3 0  1243
2 57101  43.0017 326.8569 0001608 260.2693 174.3723 15.27556409    15
STARLINK-6111           
1 57102C 23090B   26124.39284722  .00004149  00000+0  15418-3 0  1240
2 57102  43.0008 326.8759 0001391 258.6139  64.1567 15.26732602    14
STARLINK-6130           
1 57104C 23090D   26124.36020833 -.00016573  00000+0 -61592-3 0  1240
2 57104  43.0008 327.1496 0001318 255.4193 209.9825 15.26741871    16
STARLINK-6097           
1 57105C 23090E   26124.37895833 -.00082162  00000+0 -29790-2 0  1242
2 57105  43.0023 327.2538 0001403 284.7818 197.0955 15.27585151    15
STARLINK-6118           
1 57106C 23090F   26124.33520833 -.00013117  00000+0 -48746-3 0  1241
2 57106  43.0005 327.1546 0001082 255.3526 128.0041 15.26741559    12
STARLINK-6131           
1 57107C 23090G   26124.41506944  .00018939  00000+0  68613-3 0  1248
2 57107  42.9999 326.5730 0001701 268.7879 249.9583 15.27561542    15
STARLINK-6099           
1 57108C 23090H   26124.36229167 -.00000859  00000+0 -31119-4 0  1248
2 57108  42.9999 327.1403 0001464 263.2266 211.7756 15.27572202    10
STARLINK-6139           
1 57109C 23090J   26124.38034722  .00009407  00000+0  34034-3 0  1246
2 57109  43.0002 327.4754 0001991 254.9333 135.5742 15.27608681    16
STARLINK-6134           
1 57110C 23090K   26124.38590278  .00012843  00000+0  47734-3 0  1240
2 57110  43.0003 326.7217 0001621 275.1114  90.9331 15.26723570    19
STARLINK-6140           
1 57111C 23090L   26124.36854167 -.00022492  00000+0 -83583-3 0  1244
2 57111  43.0007 326.9341 0001428 249.7620 329.6807 15.26747220    16
STARLINK-6141           
1 57112C 23090M   26124.38381944 -.00005680  00000+0 -21108-3 0  1240
2 57112  43.0014 327.0959 0001526 265.4349 296.0382 15.26735784    11
STARLINK-6142           
1 57113C 23090N   26124.41437500  .00008634  00000+0  31282-3 0  1249
2 57113  43.0002 326.6254 0001524 262.2633 231.4659 15.27564634    16
STARLINK-6125           
1 57114C 23090P   26124.36854167  .00001987  00000+0  73778-4 0  1247
2 57114  43.0001 326.7036 0001781 251.6968  67.8277 15.26752870    10
STARLINK-6085           
1 57115C 23090Q   26124.39423611  .00021608  00000+0  11188-2 0  1244
2 57115  42.9995 315.1123 0020562 205.1617  79.6652 15.15239558    12
STARLINK-6129           
1 57116C 23090R   26124.41923611  .00023382  00000+0  86887-3 0  1243
2 57116  43.0032 326.3068 0001560 264.8274  21.9902 15.26724381    10
STARLINK-6148           
1 57117C 23090S   26124.39006944  .00012392  00000+0  46042-3 0  1240
2 57117  43.0007 326.5690 0001451 265.8374 176.1268 15.26734684    12
STARLINK-6150           
1 57119C 23090U   26124.37479167  .00003454  00000+0  12830-3 0  1248
2 57119  43.0022 327.1797 0001527 264.5721 230.8494 15.26744995    17
STARLINK-6147           
1 57120C 23090V   26124.42895833  .00021861  00000+0  79186-3 0  1247
2 57120  42.9995 326.6737 0001540 263.8807 253.5328 15.27565761    17
STARLINK-6152           
1 57121C 23090W   26124.37965278  .00007891  00000+0  29319-3 0  1243
2 57121  43.0037 326.4750 0002009 267.6771 181.4812 15.26734668    13
STARLINK-6149           
1 57122C 23090X   26124.39215278  .00009055  00000+0  33650-3 0  1241
2 57122  43.0030 327.2349 0002161 269.1592 257.7564 15.26728546    16
STARLINK-6154           
1 57123C 23090Y   26124.39493056  .00003113  00000+0  11567-3 0  1246
2 57123  43.0008 326.8341 0001321 256.2018  85.1715 15.26731426    18
STARLINK-6146           
1 57124C 23090Z   26124.40743056  .00018503  00000+0  68756-3 0  1248
2 57124  42.9998 326.6269 0001527 264.5824 204.9568 15.26727863    14
STARLINK-6100           
1 57125C 23090AA  26124.42479167  .00026367  00000+0  95584-3 0  1246
2 57125  43.0009 308.4506 0001382 268.5116 277.1365 15.27536660    10
STARLINK-6167           
1 57126C 23090AB  26124.35534722 -.00007463  00000+0 -27040-3 0  1248
2 57126  43.0002 327.5896 0001609 268.5103 351.4033 15.27571973    10
STARLINK-6165           
1 57127C 23090AC  26124.36020833 -.00032981  00000+0 -11948-2 0  1245
2 57127  43.0004 326.9558 0001611 262.6723 278.6870 15.27586714    15
STARLINK-6163           
1 57128C 23090AD  26124.35881944 -.00004708  00000+0 -17496-3 0  1244
2 57128  43.0000 326.7705 0001614 257.6409 359.7829 15.26733614    19
STARLINK-6170           
1 57129C 23090AE  26124.41993056  .00032544  00000+0  11790-2 0  1247
2 57129  43.0012 309.0967 0001911 262.9783   1.1676 15.27553166    12
STARLINK-6172           
1 57130C 23090AF  26124.42479167  .00025078  00000+0  93189-3 0  1249
2 57130  43.0009 326.3191 0001607 265.7288  28.6111 15.26724545    12
STARLINK-6162           
1 57131C 23090AG  26124.40534722 -.00003167  00000+0 -11484-3 0  1242
2 57131  43.0014 308.4171 0002082 262.2049 240.1109 15.27545887    12
STARLINK-6128           
1 57132C 23090AH  26124.42687500  .00020948  00000+0  77844-3 0  1244
2 57132  42.9998 326.5926 0001182 258.5887 284.7738 15.26725089    14
STARLINK-6143           
1 57133C 23090AJ  26124.36437500  .00012827  00000+0  47667-3 0  1248
2 57133  43.0009 308.7779 0001723 260.6491 320.8467 15.26727877    12
STARLINK-6133           
1 57134C 23090AK  26124.38034722  .00030031  00000+0  10879-2 0  1241
2 57134  43.0036 308.5089 0002054 266.0780 119.7075 15.27557607    17
STARLINK-6127           
1 57135C 23090AL  26124.40118056  .00026400  00000+0  98133-3 0  1243
2 57135  43.0038 308.4130 0001654 263.9638 228.7278 15.26713039    17
STARLINK-6112           
1 57136C 23090AM  26124.41090278  .00025718  00000+0  93165-3 0  1241
2 57136  43.0012 308.4371 0001507 264.0180 247.5477 15.27560019    17
STARLINK-5347           
1 57137C 23090AN  26124.35256944  .00004660  00000+0  16883-3 0  1244
2 57137  43.0037 308.6481 0002001 263.6918 336.2439 15.27565723    14
STARLINK-5336           
1 57138C 23090AP  26124.40048611  .00028573  00000+0  10616-2 0  1247
2 57138  43.0027 308.5094 0001955 258.7105 190.5069 15.26728480    13
STARLINK-5355           
1 57139C 23090AQ  26124.39770833  .00026743  00000+0  96924-3 0  1248
2 57139  43.0029 308.4245 0001768 263.4378 210.8985 15.27544541    18
STARLINK-5357           
1 57141C 23090AS  26124.37756944  .00028888  00000+0  10733-2 0  1241
2 57141  43.0035 308.4857 0001989 267.6095 119.6056 15.26726587    10
STARLINK-5361           
1 57142C 23090AT  26124.36784722  .00022818  00000+0  82673-3 0  1246
2 57142  43.0016 308.6549 0002119 258.6304  22.9803 15.27555923    10
STARLINK-5358           
1 57143C 23090AU  26124.36368056  .00019312  00000+0  71800-3 0  1240
2 57143  43.0030 308.6958 0001746 260.8906 352.4420 15.26709171    10
STARLINK-5150           
1 57144C 23090AV  26124.32965278 -.00009421  00000+0 -34132-3 0  1245
2 57144  43.0015 308.8589 0002106 270.7735 167.6113 15.27573387    11
STARLINK-5768           
1 57145C 23090AW  26124.40326389  .00024542  00000+0  88930-3 0  1243
2 57145  43.0009 308.8368 0001341 257.8912  56.0056 15.27551427    11
STARLINK-5791           
1 57146C 23090AX  26124.36784722  .00017792  00000+0  64451-3 0  1249
2 57146  43.0003 308.7535 0001673 263.4903 335.6570 15.27564613    10
STARLINK-5765           
1 57147C 23090AY  26124.36784722  .00025080  00000+0  90876-3 0  1249
2 57147  43.0027 309.1711 0001524 264.4043 157.8957 15.27552648    17
STARLINK-5788           
1 57148C 23090AZ  26124.37201389  .00020734  00000+0  77054-3 0  1248
2 57148  43.0017 309.1019 0001494 260.6872 202.6961 15.26723138    19
STARLINK-5778           
1 57149C 23090BA  26124.35187500  .00404280  00000+0  23480-1 0  1249
2 57149  42.9997 292.6541 0001722 266.3206  34.5862 15.11151622    18
STARLINK-5780           
1 57150C 23090BB  26124.39701389  .00373330  00000+0  18924-1 0  1240
2 57150  43.0003 314.8276 0001639 258.9034  27.2927 15.15998433    19
STARLINK-5776           
1 57151C 23090BC  26124.38937500  .00028015  00000+0  10149-2 0  1245
2 57151  43.0013 308.8601 0001422 265.4550 353.1920 15.27556912    11
STARLINK-6164           
1 57152C 23090BD  26124.41437500  .00027340  00000+0  99044-3 0  1247
2 57152  43.0009 308.5380 0001561 263.2563 210.8475 15.27558452    17
STARLINK-5879           
1 57153C 23090BE  26124.40187500  .00033274  00000+0  12054-2 0  1247
2 57153  43.0011 297.6261 0001888 264.2973   6.5240 15.27556455    16
STARLINK-6106           
1 57154C 23090BF  26124.37062500  .00022386  00000+0  81106-3 0  1243
2 57154  42.9999 309.0691 0001498 263.3818 209.5779 15.27557677    19
STARLINK-6108           
1 57155C 23090BG  26124.40465278  .00024077  00000+0  89475-3 0  1243
2 57155  43.0030 309.0642 0001588 261.4432 321.9323 15.26722975    13
